[ {"OBJECT_NAME": "KONDOR-FKA NO. 2", "NORAD_CAT_ID": 62138, "MEAN_MOTION": 15.1977694, "ECCENTRICITY": 0.0001838, "INCLINATION": 97.4353, "RA_OF_ASC_NODE": 273.3867, "ARG_OF_PERICENTER": 85.6363, "MEAN_ANOMALY": 274.5082, "BSTAR": 0.00026618999999999997, "EPOCH": "2026-03-09T11:47:52"}, {"OBJECT_NAME": "YAOGAN-29", "NORAD_CAT_ID": 41038, "MEAN_MOTION": 14.8299816, "ECCENTRICITY": 0.0001719, "INCLINATION": 98.0143, "RA_OF_ASC_NODE": 99.6599, "ARG_OF_PERICENTER": 31.3956, "MEAN_ANOMALY": 328.736, "BSTAR": 7.4899e-05, "EPOCH": "2026-03-12T05:21:48"}, {"OBJECT_NAME": "YAOGAN-10", "NORAD_CAT_ID": 36834, "MEAN_MOTION": 14.85025341, "ECCENTRICITY": 0.0001576, "INCLINATION": 97.9083, "RA_OF_ASC_NODE": 95.3601, "ARG_OF_PERICENTER": 85.8073, "MEAN_ANOMALY": 3.4135, "BSTAR": 0.00022192000000000002, "EPOCH": "2026-03-12T04:55:42"}, {"OBJECT_NAME": "YAOGAN-12", "NORAD_CAT_ID": 37875, "MEAN_MOTION": 15.25428944, "ECCENTRICITY": 0.0009317, "INCLINATION": 97.1282, "RA_OF_ASC_NODE": 114.3661, "ARG_OF_PERICENTER": 200.5489, "MEAN_ANOMALY": 159.5376, "BSTAR": 0.00010992, "EPOCH": "2026-03-12T05:11:32"}, {"OBJECT_NAME": "YAOGAN-4", "NORAD_CAT_ID": 33446, "MEAN_MOTION": 14.82985794, "ECCENTRICITY": 0.0015198, "INCLINATION": 97.9248, "RA_OF_ASC_NODE": 5.0901, "ARG_OF_PERICENTER": 32.8004, "MEAN_ANOMALY": 327.415, "BSTAR": 0.00020976, "EPOCH": "2026-03-11T19:28:45"}, {"OBJECT_NAME": "YAOGAN-7", "NORAD_CAT_ID": 36110, "MEAN_MOTION": 14.77897532, "ECCENTRICITY": 0.0024578, "INCLINATION": 98.0206, "RA_OF_ASC_NODE": 317.5409, "ARG_OF_PERICENTER": 355.5201, "MEAN_ANOMALY": 4.5785, "BSTAR": 0.00012844, "EPOCH": "2026-03-12T03:20:59"}, {"OBJECT_NAME": "YAOGAN-30 03A", "NORAD_CAT_ID": 43028, "MEAN_MOTION": 15.02262974, "ECCENTRICITY": 0.0002067, "INCLINATION": 34.9939, "RA_OF_ASC_NODE": 141.5273, "ARG_OF_PERICENTER": 197.3007, "MEAN_ANOMALY": 162.7631, "BSTAR": 0.000255, "EPOCH": "2026-03-12T04:53:52"}, {"OBJECT_NAME": "YAOGAN-34 02", "NORAD_CAT_ID": 52084, "MEAN_MOTION": 13.45429161, "ECCENTRICITY": 0.0043399, "INCLINATION": 63.395, "RA_OF_ASC_NODE": 90.3272, "ARG_OF_PERICENTER": 351.6571, "MEAN_ANOMALY": 8.3729, "BSTAR": 3.1318e-05, "EPOCH": "2026-03-12T04:17:59"}, {"OBJECT_NAME": "YAOGAN-30 03B", "NORAD_CAT_ID": 43029, "MEAN_MOTION": 15.02145039, "ECCENTRICITY": 0.000257, "INCLINATION": 34.9933, "RA_OF_ASC_NODE": 141.2245, "ARG_OF_PERICENTER": 112.4912, "MEAN_ANOMALY": 247.6068, "BSTAR": 0.00032625, "EPOCH": "2026-03-12T04:28:32"}, {"OBJECT_NAME": "YAOGAN-30 03C", "NORAD_CAT_ID": 43030, "MEAN_MOTION": 15.02191345, "ECCENTRICITY": 0.0002677, "INCLINATION": 34.9943, "RA_OF_ASC_NODE": 140.9018, "ARG_OF_PERICENTER": 274.8642, "MEAN_ANOMALY": 85.176, "BSTAR": 0.00025435000000000003, "EPOCH": "2026-03-12T05:32:23"}, {"OBJECT_NAME": "YAOGAN-31 01A", "NORAD_CAT_ID": 43275, "MEAN_MOTION": 13.454526, "ECCENTRICITY": 0.0266983, "INCLINATION": 63.3981, "RA_OF_ASC_NODE": 340.777, "ARG_OF_PERICENTER": 7.1273, "MEAN_ANOMALY": 353.3431, "BSTAR": -9.3813e-05, "EPOCH": "2026-03-12T05:15:00"}, {"OBJECT_NAME": "YAOGAN-31 01B", "NORAD_CAT_ID": 43276, "MEAN_MOTION": 13.45448776, "ECCENTRICITY": 0.0266966, "INCLINATION": 63.3983, "RA_OF_ASC_NODE": 340.7773, "ARG_OF_PERICENTER": 7.0855, "MEAN_ANOMALY": 353.3827, "BSTAR": -2.909e-05, "EPOCH": "2026-03-12T05:16:17"}, {"OBJECT_NAME": "YAOGAN-31 01C", "NORAD_CAT_ID": 43277, "MEAN_MOTION": 13.45433196, "ECCENTRICITY": 0.0266944, "INCLINATION": 63.3992, "RA_OF_ASC_NODE": 340.1238, "ARG_OF_PERICENTER": 6.8286, "MEAN_ANOMALY": 353.6262, "BSTAR": 6.9309e-05, "EPOCH": "2026-03-12T05:18:31"}, {"OBJECT_NAME": "YAOGAN-30 02B", "NORAD_CAT_ID": 42946, "MEAN_MOTION": 15.02271916, "ECCENTRICITY": 0.0002234, "INCLINATION": 34.9964, "RA_OF_ASC_NODE": 262.427, "ARG_OF_PERICENTER": 207.5052, "MEAN_ANOMALY": 152.5538, "BSTAR": 0.00027088000000000004, "EPOCH": "2026-03-11T23:47:31"}, {"OBJECT_NAME": "YAOGAN-36 01A", "NORAD_CAT_ID": 53943, "MEAN_MOTION": 15.22180185, "ECCENTRICITY": 0.0005437, "INCLINATION": 34.9904, "RA_OF_ASC_NODE": 175.66, "ARG_OF_PERICENTER": 198.2738, "MEAN_ANOMALY": 161.7781, "BSTAR": 0.00046876000000000003, "EPOCH": "2026-03-12T01:23:18"}, {"OBJECT_NAME": "YAOGAN-45", "NORAD_CAT_ID": 65563, "MEAN_MOTION": 5.31206575, "ECCENTRICITY": 0.0006719, "INCLINATION": 19.9784, "RA_OF_ASC_NODE": 277.9888, "ARG_OF_PERICENTER": 112.7097, "MEAN_ANOMALY": 247.3759, "BSTAR": 0.0, "EPOCH": "2026-03-11T19:05:40"}, {"OBJECT_NAME": "SBIRS GEO-3 (USA 282)", "NORAD_CAT_ID": 43162, "MEAN_MOTION": 1.00273002, "ECCENTRICITY": 0.0002231, "INCLINATION": 2.1257, "RA_OF_ASC_NODE": 7.2861, "ARG_OF_PERICENTER": 349.6974, "MEAN_ANOMALY": 53.8116, "BSTAR": 0.0, "EPOCH": "2026-03-12T02:41:46"}]