YAOGAN-4                
1 33446U 08061A   26070.81163933  .00001653  00000+0  20976-3 0  9995
2 33446  97.9248   5.0901 0015198  32.8004 327.4150 14.82985794931234
YAOGAN-7                
1 36110U 09069A   26071.13958330  .00000875  00000+0  12844-3 0  9994
2 36110  98.0206 317.5409 0024578 355.5201   4.5785 14.77897532875297
YAOGAN-10               
1 36834U 10038A   26071.20535391  .00001840  00000+0  22192-3 0  9991
2 36834  97.9083  95.3601 0001576  85.8073   3.4135 14.85025341842818
YAOGAN-12               
1 37875U 11066B   26071.21634956  .00002713  00000+0  10992-3 0  9992
2 37875  97.1282 114.3661 0009317 200.5489 159.5376 15.25428944797251
YAOGAN-29               
1 41038U 15069A   26071.22347377  .00000554  00000+0  74899-4 0  9992
2 41038  98.0143  99.6599 0001719  31.3956 328.7360 14.82998160556255
YAOGAN-30 02B           
1 42946U 17058B   26070.99133197  .00003620  00000+0  27088-3 0  9991
2 42946  34.9964 262.4270 0002234 207.5052 152.5538 15.02271916461236
YAOGAN-30 03A           
1 43028U 17075A   26071.20408142  .00003406  00000+0  25500-3 0  9991
2 43028  34.9939 141.5273 0002067 197.3007 162.7631 15.02262974452657
YAOGAN-30 03B           
1 43029U 17075B   26071.18648461  .00004352  00000+0  32625-3 0  9996
2 43029  34.9933 141.2245 0002570 112.4912 247.6068 15.02145039452761
YAOGAN-30 03C           
1 43030U 17075C   26071.23082627  .00003390  00000+0  25435-3 0  9992
2 43030  34.9943 140.9018 0002677 274.8642  85.1760 15.02191345452832
SBIRS GEO-3 (USA 282)   
1 43162U 18009A   26071.11234419  .00000130  00000+0  00000+0 0  9997
2 43162   2.1257   7.2861 0002231 349.6974  53.8116  1.00273002 29874
YAOGAN-31 01A           
1 43275U 18034A   26071.21875648 -.00000159  00000+0 -93813-4 0  9998
2 43275  63.3981 340.7770 0266983   7.1273 353.3431 13.45452600389052
YAOGAN-31 01B           
1 43276U 18034B   26071.21964561 -.00000112  00000+0 -29090-4 0  9997
2 43276  63.3983 340.7773 0266966   7.0855 353.3827 13.45448776389175
YAOGAN-31 01C           
1 43277U 18034C   26071.22119977 -.00000039  00000+0  69309-4 0  9996
2 43277  63.3992 340.1238 0266944   6.8286 353.6262 13.45433196389195
YAOGAN-34 02            
1 52084U 22027A   26071.17916622 -.00000072  00000+0  31318-4 0  9991
2 52084  63.3950  90.3272 0043399 351.6571   8.3729 13.45429161195860
YAOGAN-36 01A           
1 53943U 22120A   26071.05784748  .00011005  00000+0  46876-3 0  9990
2 53943  34.9904 175.6600 0005437 198.2738 161.7781 15.22180185192496
KONDOR-FKA NO. 2        
1 62138U 24223A   26068.49158135  .00005629  00000+0  26619-3 0  9999
2 62138  97.4353 273.3867 0001838  85.6363 274.5082 15.19776940 70565
YAOGAN-45               
1 65563U 25202A   26070.79560663 -.00000018  00000+0  00000+0 0  9991
2 65563  19.9784 277.9888 0006719 112.7097 247.3759  5.31206575  6911
